[{"OBJECT_NAME":"STARLINK-32338","OBJECT_ID":"2024-183L","EPOCH":"2026-03-09T11:40:39.863136","MEAN_MOTION":15.30207913,"ECCENTRICITY":0.00011163,"INCLINATION":53.1604,"RA_OF_ASC_NODE":143.2176,"ARG_OF_PERICENTER":93.4347,"MEAN_ANOMALY":266.6781,"EPHEMERIS_TYPE":0,"CLASSIFICATION_TYPE":"U","NORAD_CAT_ID":61519,"ELEMENT_SET_NO":999,"REV_AT_EPOCH":7962,"BSTAR":-0.00016543302,"MEAN_MOTION_DOT":-5.256e-5,"MEAN_MOTION_DDOT":0},{"OBJECT_NAME":"PEGASUS R\/B","OBJECT_ID":"2007-015B","EPOCH":"2026-03-09T10:58:33.801024","MEAN_MOTION":15.26741121,"ECCENTRICITY":0.00105976,"INCLINATION":97.9168,"RA_OF_ASC_NODE":31.3919,"ARG_OF_PERICENTER":317.6341,"MEAN_ANOMALY":42.4077,"EPHEMERIS_TYPE":0,"CLASSIFICATION_TYPE":"U","NORAD_CAT_ID":31305,"ELEMENT_SET_NO":999,"REV_AT_EPOCH":3383,"BSTAR":0.00044093522,"MEAN_MOTION_DOT":0.00011537,"MEAN_MOTION_DDOT":0}]
